{"fetched_at":"2026-03-29T16:36:15Z","count":15609,"tles":[{"name":"STARLINK-36557","line1":"1 67500U 26012H   26087.66582495  .00027944  00000+0  10211-2 0  9999","line2":"2 67500  43.0022 207.2619 0001472 262.7688  97.2997 15.27579742 10666","category":"Starlink"}]}