{
  "norad_id": 67500,
  "name": "STARLINK-36557",
  "history": [
    {
      "epoch": "2026-03-28T15:58:47.275680Z",
      "apogee_km": 484.06038418658136,
      "perigee_km": 482.0393529825724,
      "latitude_deg": 5.304230505743416e-05,
      "longitude_deg": 141.48197171002417,
      "height_km": 482.9540395920418,
      "semi_major_axis_km": 6861.186868584577,
      "eccentricity": 0.00014728,
      "inclination_deg": 43.0022,
      "raan_deg": 207.2619,
      "arg_perigee_deg": 262.7688,
      "mean_anomaly_deg": 97.2997,
      "mean_motion_rev_day": 15.27579742
    }
  ]
}